GPS BIIR-5  (PRN 22)    
1 26407U 00040A   26190.26284742  .00000108  00000+0  00000+0 0  9993
2 26407  54.8492 214.2854 0120622 302.6709  80.4805  2.00557788190398
GPS BIIR-8  (PRN 16)    
1 27663U 03005A   26190.05732503  .00000108  00000+0  00000+0 0  9992
2 27663  54.8798 214.0998 0148158  53.1389 317.7875  2.00559332171754
GPS BIIR-11 (PRN 19)    
1 28190U 04009A   26189.36503007 -.00000020  00000+0  00000+0 0  9994
2 28190  54.8121 274.8310 0116954 174.0325 209.7158  2.00553955163372
GPS BIIR-13 (PRN 02)    
1 28474U 04045A   26188.74244983 -.00000072  00000+0  00000+0 0  9992
2 28474  55.1231 324.0687 0170056 316.8842  42.3770  2.00556754158848
GPS BIIRM-1 (PRN 17)    
1 28874U 05038A   26190.30578782 -.00000011  00000+0  00000+0 0  9994
2 28874  54.8602 272.2841 0128142 296.3422  76.1359  2.00564085152287
GPS BIIRM-2 (PRN 31)    
1 29486U 06042A   26190.11781788  .00000066  00000+0  00000+0 0  9990
2 29486  54.7126 150.4682 0107015  54.9780  80.6146  2.00568543144837
GPS BIIRM-3 (PRN 12)    
1 29601U 06052A   26189.35918528  .00000105  00000+0  00000+0 0  9992
2 29601  54.9329 213.1669 0084812  90.9771 270.0548  2.00559276143837
GPS BIIRM-4 (PRN 15)    
1 32260U 07047A   26190.16326571 -.00000040  00000+0  00000+0 0  9993
2 32260  54.1110  79.1599 0167587  87.8540 274.1065  2.00554162137251
GPS BIIRM-5 (PRN 29)    
1 32384U 07062A   26189.45595171 -.00000016  00000+0  00000+0 0  9994
2 32384  55.0147 273.2970 0036006 167.0393 170.0598  2.00561245135934
GPS BIIRM-6 (PRN 07)    
1 32711U 08012A   26190.07254132  .00000064  00000+0  00000+0 0  9995
2 32711  54.4996 149.0505 0211625 248.0903 109.6271  2.00572939134191
GPS BIIRM-8 (PRN 05)    
1 35752U 09043A   26190.28406626 -.00000053  00000+0  00000+0 0  9997
2 35752  56.2241  26.5847 0053769  84.1312  76.7059  2.00553039123800
GPS BIIF-1  (PRN 25)    
1 36585U 10022A   26189.46104831  .00000110  00000+0  00000+0 0  9995
2 36585  54.2691 207.7050 0126595  66.1483 340.0151  2.00563411118021
GPS BIIF-3  (PRN 24)    
1 38833U 12053A   26190.25310762  .00000048  00000+0  00000+0 0  9990
2 38833  53.5889 142.6954 0181617  66.1165 295.7493  2.00567798 99882
GPS BIIF-4  (PRN 27)    
1 39166U 13023A   26189.62208091 -.00000005  00000+0  00000+0 0  9992
2 39166  54.4874 268.0998 0141384  51.1026 310.2123  2.00563336 96316
GPS BIIF-5  (PRN 30)    
1 39533U 14008A   26190.12248262  .00000061  00000+0  00000+0 0  9996
2 39533  53.6572 148.4252 0084181 231.5244 127.6963  2.00561151 90129
GPS BIIF-6  (PRN 06)    
1 39741U 14026A   26189.40119153 -.00000072  00000+0  00000+0 0  9995
2 39741  56.4870 330.6921 0038114 325.9785  33.7812  2.00559384 88967
GPS BIIF-7  (PRN 09)    
1 40105U 14045A   26189.99154489 -.00000032  00000+0  00000+0 0  9993
2 40105  55.3668  87.5962 0034162 118.3268 242.0523  2.00559814 86519
GPS BIIF-8  (PRN 03)    
1 40294U 14068A   26189.85970982 -.00000050  00000+0  00000+0 0  9996
2 40294  57.0024  30.1204 0067446  71.3730 289.4121  2.00577411 85644
GPS BIIF-9  (PRN 26)    
1 40534U 15013A   26190.00112226  .00000113  00000+0  00000+0 0  9991
2 40534  53.1666 203.2753 0110136  40.3247 320.5339  2.00550039 82266
GPS BIIF-10 (PRN 08)    
1 40730U 15033A   26189.16213804 -.00000003  00000+0  00000+0 0  9999
2 40730  53.9664 266.2211 0115246  30.2795 330.4465  2.00555133 80416
GPS BIIF-11 (PRN 10)    
1 41019U 15062A   26190.21446300 -.00000050  00000+0  00000+0 0  9991
2 41019  56.9742  29.9632 0112606 230.9151 128.1287  2.00566961 78276
GPS BIIF-12 (PRN 32)    
1 41328U 16007A   26189.80752889 -.00000030  00000+0  00000+0 0  9997
2 41328  55.5370  88.6024 0096602 247.6357 111.3718  2.00575699 76277
GPS BIII-1  (PRN 04)    
1 43873U 18109A   26190.19212074 -.00000030  00000+0  00000+0 0  9990
2 43873  55.6945  91.3190 0038533 197.3547 334.9704  2.00562548 55510
GPS BIII-2  (PRN 18)    
1 44506U 19056A   26189.84169353 -.00000075  00000+0  00000+0 0  9996
2 44506  55.6256 330.2832 0063162 198.0526 345.4471  2.00569904 50503
GPS BIII-3  (PRN 23)    
1 45854U 20041A   26187.18030691 -.00000055  00000+0  00000+0 0  9994
2 45854  56.6823  28.2076 0064724 204.5515 154.8185  2.00558250 44410
GPS BIII-4  (PRN 14)    
1 46826U 20078A   26190.29457378  .00000111  00000+0  00000+0 0  9997
2 46826  53.9780 209.8822 0074392 207.6620 217.3910  2.00564849 41959
GPS BIII-5  (PRN 11)    
1 48859U 21054A   26190.24001956 -.00000077  00000+0  00000+0 0  9994
2 48859  55.1631 331.5740 0026299 228.4962 343.5157  2.00567437 37193
GPS BIII-6  (PRN 28)    
1 55268U 23009A   26189.14195422  .00000071  00000+0  00000+0 0  9990
2 55268  55.1237 147.6955 0006209 319.8911 217.8197  2.00570045 25664
GPS BIII-7  (PRN 01)    
1 62339U 24242A   26190.27400485 -.00000078  00000+0  00000+0 0  9999
2 62339  54.8393 333.2870 0017742   4.0392 353.4173  2.00571854 11697
GPS BIII-8  (PRN 21)    
1 64202U 25116A   26188.28169900 -.00000056  00000+0  00000+0 0  9999
2 64202  55.2499  30.3230 0008349 339.7972 202.1311  2.00574400  8274
GPS BIII-9  (PRN 20)    
1 67588U 26017A   26189.63546814 -.00000030  00000+0  00000+0 0  9995
2 67588  55.1016  87.8945 0021643 259.6539 100.1366  2.00570619432040
GPS BIII-10 (PRN 13)    
1 68791U 26087A   26189.60920251  .00000113  00000+0  00000+0 0  9998
2 68791  54.9616 206.9407 0020552 106.5478  79.9286  2.00572038  1264
